1 45665U 20035J   23028.63580367  .00000429  00000-0  47663-4 0  9994
2 45665  53.0533 126.5709 0001110  92.5830 267.5286 15.06401024147097
1 45665U 20035J   23029.23293039 -.00000541  00000-0 -17420-4 0  9993
2 45665  53.0532 123.8937 0000821  83.9276 276.1806 15.06396898147181
1 45665U 20035J   23029.63101122 -.00000093  00000-0  12663-4 0  9993
2 45665  53.0537 122.1054 0001126  74.3369 285.7744 15.06397584147645
1 45665U 20035J   23030.42717324  .00000841  00000-0  75344-4 0  9994
2 45665  53.0539 118.5309 0001226  90.3629 269.7500 15.06396602147368
1 45665U 20035J   23030.49351887  .00000608  00000-0  59726-4 0  9996
2 45665  53.0539 118.2330 0001151  86.9482 273.1639 15.06399315147775
1 45665U 20035J   23031.22336131 -.00002064  00000-0 -11984-3 0  9996
2 45665  53.0538 114.9566 0001270  83.7645 276.3488 15.06369853147485
1 45665U 20035J   23031.48874939 -.00001731  00000-0 -97395-4 0  9998
2 45665  53.0541 113.7663 0001322  75.5475 284.5661 15.06374029147926
1 45665U 20035J   23031.62143670 -.00001091  00000-0 -54366-4 0  9995
2 45665  53.0537 113.1689 0001040  95.9665 264.1442 15.06382190147948
1 45665U 20035J   23031.62143670 -.00001091  00000-0 -54366-4 0  9995
2 45665  53.0537 113.1689 0001040  95.9665 264.1442 15.06382190147544
1 45665U 20035J   23032.48394282  .00000240  00000-0  35038-4 0  9995
2 45665  53.0539 109.2975 0001374  82.8840 277.2306 15.06394600148072
1 45665U 20035J   23032.48394282  .00000240  00000-0  35038-4 0  9995
2 45665  53.0539 109.2975 0001374  82.8840 277.2306 15.06394600147677
1 45665U 20035J   23033.47913428  .00012797  00000-0  87571-3 0  9992
2 45665  53.0531 104.8291 0001481  94.4307 265.6851 15.06430766148229
1 45665U 20035J   23033.87721018  .00005989  00000-0  42028-3 0  9991
2 45665  53.0550 103.0358 0001729  75.8675 284.2506 15.06429342147884
1 45665U 20035J   23034.20894629 -.00000804  00000-0 -35070-4 0  9991
2 45665  53.0532 101.5547 0002285  99.1802 260.9445 15.06415942147936
1 45665U 20035J   23034.40798891 -.00007793  00000-0 -50482-3 0  9994
2 45665  53.0553 100.6638 0001707  92.8512 267.2672 15.06399031147961
1 45665U 20035J   23035.46953622  .00016171  00000-0  11015-2 0  9992
2 45665  53.0541  95.8945 0001725  92.6571 267.4616 15.06418505148124
1 45665U 20035J   23035.53588090  .00021127  00000-0  14319-2 0  9990
2 45665  53.0535  95.5959 0001860  97.0349 263.0852 15.06427676148539
1 45665U 20035J   23035.86761127  .00012210  00000-0  83658-3 0  9996
2 45665  53.0533  94.1067 0001723  86.8766 273.2420 15.06426418148581
1 45665U 20035J   23036.13299528  .00012090  00000-0  82849-3 0  9995
2 45665  53.0536  92.9189 0002032  88.2564 271.8658 15.06428535148221
1 45665U 20035J   23036.53107234  .00004666  00000-0  33177-3 0  9991
2 45665  53.0530  91.1278 0001729  81.9280 278.1906 15.06420481148286
1 45665U 20035J   23036.86280752 -.00002374  00000-0 -14051-3 0  9990
2 45665  53.0536  89.6393 0001432  90.8768 269.2385 15.06405162148734
1 45665U 20035J   23037.12819997 -.00002529  00000-0 -15092-3 0  9997
2 45665  53.0529  88.4489 0002052  91.1279 268.9945 15.06396384148372
1 45665U 20035J   23037.52628439 -.00000433  00000-0 -10128-4 0  9998
2 45665  53.0534  86.6599 0001886  92.5457 267.5748 15.06395909148836
1 45665U 20035J   23037.85802346  .00002119  00000-0  16117-3 0  9999
2 45665  53.0525  85.1701 0001819  93.1603 266.9595 15.06387828148880
1 45665U 20035J   23037.85802346  .00002119  00000-0  16117-3 0  9999
2 45665  53.0525  85.1701 0001819  93.1603 266.9595 15.06387828148486
1 45665U 20035J   23038.52149064  .00013681  00000-0  93533-3 0  9998
2 45665  53.0521  82.1910 0001719  92.3295 267.7891 15.06408927148581
1 45665U 20035J   23039.25130865  .00006203  00000-0  43489-3 0  9995
2 45665  53.0518  78.9141 0001622 101.9886 258.1285 15.06402941148695
1 45665U 20035J   23039.51669399  .00013013  00000-0  89062-3 0  9997
2 45665  53.0516  77.7226 0001526  98.8784 261.2378 15.06412184149136
1 45665U 20035J   23040.24651269  .00011170  00000-0  76746-3 0  9993
2 45665  53.0526  74.4425 0001625 106.9492 253.1675 15.06406755148843
1 45665U 20035J   23040.37920763  .00014738  00000-0  10061-2 0  9995
2 45665  53.0528  73.8485 0001543  93.8798 266.2367 15.06405054149267
1 45665U 20035J   23040.77728788  .00006646  00000-0  46472-3 0  9997
2 45665  53.0537  72.0613 0001887  95.9114 264.2090 15.06393121149326
1 45665U 20035J   23040.77728788  .00006646  00000-0  46472-3 0  9997
2 45665  53.0537  72.0613 0001887  95.9114 264.2090 15.06393121148921
1 45665U 20035J   23041.10902571  .00001854  00000-0  14334-3 0  9997
2 45665  53.0548  70.5770 0002076 117.8795 242.2404 15.06395649149372
1 45665U 20035J   23041.30806621  .00002891  00000-0  21292-3 0  9991
2 45665  53.0545  69.6837 0002021 117.8705 242.2489 15.06399628149401
1 45665U 20035J   23041.30806621  .00002891  00000-0  21292-3 0  9991
2 45665  53.0545  69.6837 0002021 117.8705 242.2489 15.06399628149007
1 45665U 20035J   23042.23692374  .00003101  00000-0  22698-3 0  9998
2 45665  53.0545  65.5141 0002024 124.0357 236.0824 15.06399164149544
1 45665U 20035J   23042.76769835  .00004485  00000-0  31979-3 0  9991
2 45665  53.0536  63.1280 0001527  94.1494 265.9669 15.06404198149629
1 45665U 20035J   23042.76769835  .00004485  00000-0  31979-3 0  9991
2 45665  53.0536  63.1280 0001527  94.1494 265.9669 15.06404198149225
1 45665U 20035J   23043.03309135  .00002204  00000-0  16686-3 0  9990
2 45665  53.0538  61.9394 0002136  99.0091 261.1140 15.06395612149269
1 45665U 20035J   23043.43117568 -.00000155  00000-0  84908-5 0  9999
2 45665  53.0527  60.1491 0001553 106.6003 253.5156 15.06386540149729
1 45665U 20035J   23043.43117568 -.00000155  00000-0  84908-5 0  9999
2 45665  53.0527  60.1491 0001553 106.6003 253.5156 15.06386540149325
1 45665U 20035J   23044.02829912  .00009239  00000-0  63832-3 0  9990
2 45665  53.0529  57.4679 0001354 104.7715 255.3424 15.06398895149416
1 45665U 20035J   23044.49271327  .00040413  00000-0  27117-2 0  9996
2 45665  53.0535  55.3873 0001705  67.9772 292.1398 15.06465095149482
1 45665U 20035J   23044.75809388  .00021377  00000-0  14476-2 0  9991
2 45665  53.0540  54.1929 0002000  85.4081 274.7136 15.06452616149520
1 45665U 20035J   23045.02348089  .00003085  00000-0  22579-3 0  9998
2 45665  53.0530  53.0000 0001522 103.0317 257.0842 15.06421518149563
1 45665U 20035J   23045.42154994  .00005977  00000-0  41937-3 0  9993
2 45665  53.0528  51.2133 0001734 101.4828 258.6356 15.06437392149622
1 45665U 20035J   23045.48789750  .00024361  00000-0  16473-2 0  9997
2 45665  53.0531  50.9158 0001860 100.6140 259.5058 15.06431490150036
1 45665U 20035J   23046.15138275  .00018650  00000-0  12682-2 0  9994
2 45665  53.0540  47.9380 0002001 109.6795 250.4410 15.06382171149730
1 45665U 20035J   23046.41677604  .00021320  00000-0  14467-2 0  9998
2 45665  53.0564  46.7448 0001834  93.4762 266.6437 15.06377889149777
1 45665U 20035J   23046.48312329  .00036159  00000-0  24346-2 0  9998
2 45665  53.0551  46.4481 0001720  85.5129 274.6057 15.06390535150187
1 45665U 20035J   23046.48312329  .00036159  00000-0  24346-2 0  9998
2 45665  53.0551  46.4481 0001720  85.5129 274.6057 15.06390535149781
1 45665U 20035J   23047.27928485  .00023129  00000-0  15658-2 0  9991
2 45665  53.0533  42.8752 0001757  89.7582 270.3608 15.06417232149904
1 45665U 20035J   23047.47832119  .00026065  00000-0  17608-2 0  9990
2 45665  53.0532  41.9817 0001795  90.2661 269.8534 15.06431080150339
1 45665U 20035J   23047.67737299  .00003333  00000-0  24262-3 0  9993
2 45665  53.0533  41.0848 0003671  87.2405 272.9004 15.06397430150362
1 45665U 20035J   23047.67737299  .00003333  00000-0  24262-3 0  9993
2 45665  53.0533  41.0848 0003671  87.2405 272.9004 15.06397430149966
1 45665U 20035J   23048.27448064  .00009762  00000-0  67302-3 0  9993
2 45665  53.0536  38.4075 0001463 102.3193 257.7960 15.06416605150051
1 45665U 20035J   23048.40717371  .00020353  00000-0  13806-2 0  9996
2 45665  53.0533  37.8120 0001460 103.7951 256.3200 15.06418668150475
1 45665U 20035J   23048.67256281  .00000824  00000-0  74207-4 0  9998
2 45665  53.0531  36.6199 0000681  86.0623 274.0444 15.06399214150516
1 45665U 20035J   23048.67256281  .00000824  00000-0  74207-4 0  9998
2 45665  53.0531  36.6199 0000681  86.0623 274.0444 15.06399214150112
1 45665U 20035J   23049.33604947  .00020455  00000-0  13891-2 0  9990
2 45665  53.0530  33.6417 0001503  79.5392 280.5766 15.06373869150617
1 45665U 20035J   23049.33604947  .00020455  00000-0  13891-2 0  9990
2 45665  53.0530  33.6417 0001503  79.5392 280.5766 15.06373869150213
1 45665U 20035J   23050.19855804  .00023567  00000-0  15951-2 0  9992
2 45665  53.0532  29.7693 0001345  83.9473 276.1669 15.06415708150740
1 45665U 20035J   23050.66298368  .00011788  00000-0  80873-3 0  9998
2 45665  53.0547  27.6841 0000695  84.8929 275.2139 15.06410111150410
1 45665U 20035J   23051.19376709  .00005282  00000-0  37333-3 0  9998
2 45665  53.0535  25.3010 0001253  94.7920 265.3212 15.06391003150894
1 45665U 20035J   23051.19376709  .00005282  00000-0  37333-3 0  9998
2 45665  53.0535  25.3010 0001253  94.7920 265.3212 15.06391003150490
1 45665U 20035J   23052.12262106  .00027789  00000-0  18756-2 0  9990
2 45665  53.0551  21.1319 0001250  97.5436 262.5695 15.06430336151032
1 45665U 20035J   23052.12262106  .00027789  00000-0  18756-2 0  9990
2 45665  53.0551  21.1319 0001250  97.5436 262.5695 15.06430336150637
1 45665U 20035J   23053.18417068  .00009004  00000-0  62248-3 0  9992
2 45665  53.0552  16.3659 0001279 113.5411 246.5712 15.06406598150796
1 45665U 20035J   23053.25051983  .00017135  00000-0  11665-2 0  9990
2 45665  53.0557  16.0695 0001376 116.4933 243.6198 15.06398003151201
1 45665U 20035J   23054.24569860  .00020521  00000-0  13905-2 0  9990
2 45665  53.0552  11.6007 0001302 119.5098 240.6020 15.06454459150959
1 45665U 20035J   23054.31204296  .00021237  00000-0  14382-2 0  9992
2 45665  53.0551  11.3024 0001316 121.0420 239.0698 15.06455456151363
